{
  "norad_id": 63219,
  "name": "TEVEL2-2",
  "history": [
    {
      "epoch": "2026-04-15T10:37:54.296256Z",
      "apogee_km": 472.5080472959562,
      "perigee_km": 468.27154861873987,
      "latitude_deg": -1.9135102671170352e-05,
      "longitude_deg": -1.621618584300654,
      "height_km": 471.7060128573161,
      "semi_major_axis_km": 6848.526797957347,
      "eccentricity": 0.0003093,
      "inclination_deg": 97.3957,
      "raan_deg": 1.4596,
      "arg_perigee_deg": 32.4565,
      "mean_anomaly_deg": 327.6866,
      "mean_motion_rev_day": 15.31817486
    },
    {
      "epoch": "2026-04-16T05:26:41.964576Z",
      "apogee_km": 472.4081170923155,
      "perigee_km": 468.2812220382348,
      "latitude_deg": 1.9825338499596216e-05,
      "longitude_deg": 76.18952756906778,
      "height_km": 471.66907685822133,
      "semi_major_axis_km": 6848.481669565274,
      "eccentricity": 0.0003013,
      "inclination_deg": 97.3954,
      "raan_deg": 2.242,
      "arg_perigee_deg": 30.4172,
      "mean_anomaly_deg": 329.7244,
      "mean_motion_rev_day": 15.31832627
    },
    {
      "epoch": "2026-04-17T15:56:07.810656Z",
      "apogee_km": 472.22106743055974,
      "perigee_km": 468.30186595603936,
      "latitude_deg": -1.524635510451225e-05,
      "longitude_deg": -81.15053270241025,
      "height_km": 471.63289711468104,
      "semi_major_axis_km": 6848.398466693299,
      "eccentricity": 0.00028614,
      "inclination_deg": 97.3948,
      "raan_deg": 3.6761,
      "arg_perigee_deg": 27.839,
      "mean_anomaly_deg": 332.3004,
      "mean_motion_rev_day": 15.31860543
    },
    {
      "epoch": "2026-04-18T10:44:53.536704Z",
      "apogee_km": 472.06693331327915,
      "perigee_km": 468.3040540359061,
      "latitude_deg": -2.21947035730845e-05,
      "longitude_deg": -3.331566825190414,
      "height_km": 471.59943235091265,
      "semi_major_axis_km": 6848.322493674593,
      "eccentricity": 0.00027473,
      "inclination_deg": 97.3941,
      "raan_deg": 4.4582,
      "arg_perigee_deg": 26.0313,
      "mean_anomaly_deg": 334.1066,
      "mean_motion_rev_day": 15.31886034
    },
    {
      "epoch": "2026-04-19T03:59:34.685952Z",
      "apogee_km": 471.965202225334,
      "perigee_km": 468.3104149254932,
      "latitude_deg": 5.959472644715633e-05,
      "longitude_deg": 98.00574992708371,
      "height_km": 471.57835529946453,
      "semi_major_axis_km": 6848.274808575413,
      "eccentricity": 0.00026684,
      "inclination_deg": 97.3938,
      "raan_deg": 5.1752,
      "arg_perigee_deg": 24.4012,
      "mean_anomaly_deg": 335.7356,
      "mean_motion_rev_day": 15.31902034
    },
    {
      "epoch": "2026-04-21T15:33:49.798656Z",
      "apogee_km": 471.5264880632594,
      "perigee_km": 468.3079025914549,
      "latitude_deg": -5.446484427358639e-05,
      "longitude_deg": -75.52699839039214,
      "height_km": 471.4924595940098,
      "semi_major_axis_km": 6848.054195327357,
      "eccentricity": 0.000235,
      "inclination_deg": 97.3933,
      "raan_deg": 7.6519,
      "arg_perigee_deg": 18.037,
      "mean_anomaly_deg": 342.0954,
      "mean_motion_rev_day": 15.31976061
    },
    {
      "epoch": "2026-04-22T04:06:16.852896Z",
      "apogee_km": 471.43138023174106,
      "perigee_km": 468.3108798870362,
      "latitude_deg": -6.253968775703972e-06,
      "longitude_deg": 96.36663370965752,
      "height_km": 471.47853541971904,
      "semi_major_axis_km": 6848.008130059388,
      "eccentricity": 0.00022784,
      "inclination_deg": 97.3933,
      "raan_deg": 8.1733,
      "arg_perigee_deg": 16.2088,
      "mean_anomaly_deg": 343.9226,
      "mean_motion_rev_day": 15.31991519
    },
    {
      "epoch": "2026-04-22T22:54:56.708064Z",
      "apogee_km": 471.30121056981625,
      "perigee_km": 468.3237221418449,
      "latitude_deg": 5.230053446955394e-05,
      "longitude_deg": 174.21031781938223,
      "height_km": 471.47378268446414,
      "semi_major_axis_km": 6847.949466355831,
      "eccentricity": 0.0002174,
      "inclination_deg": 97.3932,
      "raan_deg": 8.9556,
      "arg_perigee_deg": 13.9994,
      "mean_anomaly_deg": 346.1308,
      "mean_motion_rev_day": 15.32011205
    },
    {
      "epoch": "2026-04-24T15:40:19.826400Z",
      "apogee_km": 471.0174228305632,
      "perigee_km": 468.3139103377953,
      "latitude_deg": -6.149470508767349e-05,
      "longitude_deg": -77.11480313700646,
      "height_km": 471.4332772493543,
      "semi_major_axis_km": 6847.802666584179,
      "eccentricity": 0.0001974,
      "inclination_deg": 97.3936,
      "raan_deg": 10.6506,
      "arg_perigee_deg": 7.9657,
      "mean_anomaly_deg": 352.1615,
      "mean_motion_rev_day": 15.32060469
    },
    {
      "epoch": "2026-04-25T16:45:08.354304Z",
      "apogee_km": 470.8213187738411,
      "perigee_km": 468.2808264988935,
      "latitude_deg": -3.483284204734684e-05,
      "longitude_deg": -93.30381155361518,
      "height_km": 471.3924803533788,
      "semi_major_axis_km": 6847.688072636367,
      "eccentricity": 0.0001855,
      "inclination_deg": 97.3937,
      "raan_deg": 11.6938,
      "arg_perigee_deg": 5.1387,
      "mean_anomaly_deg": 354.9873,
      "mean_motion_rev_day": 15.32098927
    },
    {
      "epoch": "2026-04-26T14:41:48.837984Z",
      "apogee_km": 470.6395678250774,
      "perigee_km": 468.22388253020836,
      "latitude_deg": -7.737779265937717e-05,
      "longitude_deg": -62.46071956807801,
      "height_km": 471.331279058368,
      "semi_major_axis_km": 6847.568725177643,
      "eccentricity": 0.00017639,
      "inclination_deg": 97.3937,
      "raan_deg": 12.6068,
      "arg_perigee_deg": 1.822,
      "mean_anomaly_deg": 358.3027,
      "mean_motion_rev_day": 15.32138982
    }
  ]
}